     2.10           GLONASS NAV DATA                        RINEX VERSION / TYPE
SPIDER V4,0,0,3554                      2015 03 24 01:05    PGM / RUN BY / DATE 
  2015     2    25   -1.117587089539e-008                    CORR TO SYSTEM TIME 
    16                                                      LEAP SECONDS        
                                                            END OF HEADER       
18 15 02 25 03 45  0.0 3.930740058422D-05 1.818989403546D-12 1.260000000000D+04
    1.119122167969D+04 6.956768035889D-02 1.862645149231D-09 0.000000000000D+00
    2.291209472656D+04-2.736444473267D-01 0.000000000000D+00-3.000000000000D+00
   -1.517973632813D+03-3.567210197449D+00-9.313225746155D-10 0.000000000000D+00
20 15 02 25 03 45  0.0-1.602321863174D-04-1.818989403546D-12 1.260000000000D+04
    9.487839355469D+03 1.429623603821D+00-0.000000000000D+00 0.000000000000D+00
   -5.005758789063D+03 2.828169822693D+00-0.000000000000D+00 2.000000000000D+00
    2.315384667969D+04 3.061485290527D-02-2.793967723846D-09 0.000000000000D+00
 6 15 02 25 03 45  0.0 6.315112113953D-05 9.094947017729D-13 1.320000000000D+04
    2.235194531250D+04 1.547467231750D+00 2.793967723846D-09 0.000000000000D+00
   -4.910101074219D+03-8.385086059570D-02 9.313225746155D-10-4.000000000000D+00
   -1.131775878906D+04 3.094836235046D+00 0.000000000000D+00 0.000000000000D+00
 6 15 02 25 04 15  0.0 6.315205246210D-05 9.094947017729D-13 1.440000000000D+04
    2.440353808594D+04 7.148084640503D-01 2.793967723846D-09 0.000000000000D+00
   -5.212507324219D+03-2.139005661011D-01 0.000000000000D+00-4.000000000000D+00
   -5.382381835938D+03 3.457328796387D+00-0.000000000000D+00 0.000000000000D+00
19 15 02 25 04 15  0.0-1.191701740026D-04-0.000000000000D+00 1.440000000000D+04
    1.689988427734D+04 1.023931503296D+00 9.313225746155D-10 0.000000000000D+00
    1.533616552734D+04 1.190911293030D+00-0.000000000000D+00 3.000000000000D+00
    1.140152148438D+04-3.121260643005D+00-1.862645149231D-09 0.000000000000D+00
 4 15 02 25 04 15  0.0 1.108646392822D-04 9.094947017729D-13 1.440000000000D+04
    6.578022460938D+03-3.064406394958D+00-0.000000000000D+00 0.000000000000D+00
    1.010337451172D+04 2.755079269409D-01-0.000000000000D+00 6.000000000000D+00
    2.248808593750D+04 7.721271514893D-01-2.793967723846D-09 0.000000000000D+00
 5 15 02 25 04 15  0.0 2.857297658920D-06 0.000000000000D+00 1.440000000000D+04
    2.184220800781D+04-1.729166030884D+00 1.862645149231D-09 0.000000000000D+00
    3.805211425781D+03 6.777667999268D-02-0.000000000000D+00 1.000000000000D+00
    1.259332275391D+04 2.975718498230D+00-1.862645149231D-09 0.000000000000D+00
20 15 02 25 04 15  0.0-1.602387055755D-04-9.094947017729D-13 1.440000000000D+04
    1.239327343750D+04 1.767560958862D+00 0.000000000000D+00 0.000000000000D+00
   -1.818564453125D+02 2.489821434021D+00-0.000000000000D+00 2.000000000000D+00
    2.231466113281D+04-9.568548202515D-01-2.793967723846D-09 0.000000000000D+00
21 15 02 25 04 15  0.0 2.672895789146D-07 1.818989403546D-12 1.470000000000D+04
    1.637854003906D+03 1.572557449341D+00-9.313225746155D-10 0.000000000000D+00
   -1.467067626953D+04 2.376458168030D+00-0.000000000000D+00 4.000000000000D+00
    2.081670898438D+04 1.549104690552D+00-1.862645149231D-09 1.500000000000D+01
 6 15 02 25 04 45  0.0 6.315391510725D-05 0.000000000000D+00 1.620000000000D+04
    2.489724218750D+04-1.643276214600D-01 1.862645149231D-09 0.000000000000D+00
   -5.535836914063D+03-1.049346923828D-01 0.000000000000D+00-4.000000000000D+00
    9.682226562500D+02 3.553174972534D+00-9.313225746155D-10 0.000000000000D+00
19 15 02 25 04 45  0.0-1.191720366478D-04-0.000000000000D+00 1.620000000000D+04
    1.843390869141D+04 6.381788253784D-01 1.862645149231D-09 0.000000000000D+00
    1.678072607422D+04 4.229393005371D-01-0.000000000000D+00 3.000000000000D+00
    5.415119140625D+03-3.487125396729D+00-1.862645149231D-09 0.000000000000D+00
 4 15 02 25 04 45  0.0 1.108674332500D-04 9.094947017729D-13 1.620000000000D+04
    1.020859375000D+03-3.058930397034D+00-9.313225746155D-10 0.000000000000D+00
    1.101623583984D+04 7.334108352661D-01-9.313225746155D-10 6.000000000000D+00
    2.299156103516D+04-2.163562774658D-01-2.793967723846D-09 0.000000000000D+00
 5 15 02 25 04 45  0.0 2.858228981495D-06 0.000000000000D+00 1.620000000000D+04
    1.814660156250D+04-2.338503837585D+00 9.313225746155D-10 0.000000000000D+00
    4.269923828125D+03 4.726953506470D-01-0.000000000000D+00 1.000000000000D+00
    1.739284423828D+04 2.322394371033D+00-2.793967723846D-09 0.000000000000D+00
20 15 02 25 04 45  0.0-1.602424308658D-04-9.094947017729D-13 1.620000000000D+04
    1.571622265625D+04 1.881978034973D+00 9.313225746155D-10 0.000000000000D+00
    3.830844726563D+03 1.941242218018D+00-0.000000000000D+00 2.000000000000D+00
    1.975401220703D+04-1.869782447815D+00-2.793967723846D-09 0.000000000000D+00
21 15 02 25 04 45  0.0 2.710148692131D-07 1.818989403546D-12 1.626000000000D+04
    4.950003417969D+03 2.086289405823D+00-0.000000000000D+00 0.000000000000D+00
   -1.040715917969D+04 2.314339637756D+00-0.000000000000D+00 4.000000000000D+00
    2.276548095703D+04 6.021051406860D-01-1.862645149231D-09 1.500000000000D+01
 6 15 02 25 05 15  0.0 6.315577775240D-05 0.000000000000D+00 1.800000000000D+04
    2.385325683594D+04-9.750471115112D-01 1.862645149231D-09 0.000000000000D+00
   -5.451659667969D+03 2.336006164551D-01-0.000000000000D+00-4.000000000000D+00
    7.244037109375D+03 3.374714851379D+00-1.862645149231D-09 0.000000000000D+00
19 15 02 25 05 15  0.0-1.191729679704D-04-0.000000000000D+00 1.800000000000D+04
    1.905992089844D+04 2.479171752930D-02 1.862645149231D-09 0.000000000000D+00
    1.692284326172D+04-2.389335632324D-01-0.000000000000D+00 3.000000000000D+00
   -9.899653320313D+02-3.583419799805D+00-9.313225746155D-10 0.000000000000D+00
 4 15 02 25 05 15  0.0 1.108702272177D-04 9.094947017729D-13 1.800000000000D+04
   -4.256291992188D+03-2.758566856384D+00-1.862645149231D-09 0.000000000000D+00
    1.269246972656D+04 1.106458663940D+00-0.000000000000D+00 6.000000000000D+00
    2.171916455078D+04-1.188281059265D+00-1.862645149231D-09 0.000000000000D+00
 5 15 02 25 05 15  0.0 2.858228981495D-06 0.000000000000D+00 1.800000000000D+04
    1.358146679688D+04-2.686108589172D+00 0.000000000000D+00 0.000000000000D+00
    5.565891601563D+03 9.752264022827D-01-0.000000000000D+00 1.000000000000D+00
    2.084573437500D+04 1.489197731018D+00-2.793967723846D-09 0.000000000000D+00
20 15 02 25 05 15  0.0-1.602452248335D-04-9.094947017729D-13 1.800000000000D+04
    1.900378613281D+04 1.723552703857D+00 9.313225746155D-10 0.000000000000D+00
    6.739525878906D+03 1.281311988831D+00-0.000000000000D+00 2.000000000000D+00
    1.567043359375D+04-2.638103485107D+00-2.793967723846D-09 0.000000000000D+00
21 15 02 25 05 15  0.0 2.738088369370D-07 1.818989403546D-12 1.806000000000D+04
    9.042328125000D+03 2.423939704895D+00-0.000000000000D+00 0.000000000000D+00
   -6.491240722656D+03 1.999904632568D+00-0.000000000000D+00 4.000000000000D+00
    2.295608837891D+04-3.917665481567D-01-2.793967723846D-09 1.500000000000D+01
 7 15 02 25 05 15  0.0-1.155566424131D-04-0.000000000000D+00 1.923000000000D+04
    1.992561376953D+04 1.210266113281D+00 2.793967723846D-09 0.000000000000D+00
   -1.253603320313D+04-6.119117736816D-01 0.000000000000D+00 5.000000000000D+00
   -9.821479003906D+03 3.225980758667D+00-0.000000000000D+00 0.000000000000D+00
 6 15 02 25 05 45  0.0 6.315670907497D-05 0.000000000000D+00 1.980000000000D+04
    2.149037451172D+04-1.614567756653D+00 9.313225746155D-10 0.000000000000D+00
   -4.587702148438D+03 7.495937347412D-01-0.000000000000D+00-4.000000000000D+00
    1.296027294922D+04 2.935397148132D+00-1.862645149231D-09 0.000000000000D+00
 7 15 02 25 05 45  0.0-1.155575737357D-04-0.000000000000D+00 1.980000000000D+04
    2.135111669922D+04 3.758573532104D-01 2.793967723846D-09 0.000000000000D+00
   -1.346745458984D+04-3.812160491943D-01-0.000000000000D+00 5.000000000000D+00
   -3.710068359375D+03 3.520354270935D+00-0.000000000000D+00 0.000000000000D+00
 5 15 02 25 05 45  0.0 2.859160304070D-06 0.000000000000D+00 1.980000000000D+04
    8.654523925781D+03-2.738747596741D+00-0.000000000000D+00 0.000000000000D+00
    7.776957519531D+03 1.471375465393D+00-0.000000000000D+00 1.000000000000D+00
    2.268459472656D+04 5.407018661499D-01-2.793967723846D-09 0.000000000000D+00
19 15 02 25 05 45  0.0-1.191748306155D-04-0.000000000000D+00 1.980000000000D+04
    1.843227685547D+04-7.391061782837D-01 1.862645149231D-09 0.000000000000D+00
    1.603900878906D+04-7.046241760254D-01-0.000000000000D+00 3.000000000000D+00
   -7.318479003906D+03-3.402583122253D+00-0.000000000000D+00 0.000000000000D+00
20 15 02 25 05 45  0.0-1.602480188012D-04-9.094947017729D-13 1.980000000000D+04
    2.175335205078D+04 1.287245750427D+00 9.313225746155D-10 0.000000000000D+00
    8.444416992188D+03 6.226291656494D-01-0.000000000000D+00 2.000000000000D+00
    1.037925000000D+04-3.202929496765D+00-1.862645149231D-09 0.000000000000D+00
21 15 02 25 05 45  0.0 2.766028046608D-07 1.818989403546D-12 1.986000000000D+04
    1.352338916016D+04 2.508243560791D+00 0.000000000000D+00 0.000000000000D+00
   -3.314050292969D+03 1.508777618408D+00-0.000000000000D+00 4.000000000000D+00
    2.137303662109D+04-1.355849266052D+00-2.793967723846D-09 1.500000000000D+01
22 15 02 25 05 45  0.0 1.541804522276D-04 9.094947017729D-13 2.130000000000D+04
   -2.601829589844D+03 2.455109596252D+00-9.313225746155D-10 0.000000000000D+00
   -1.346779687500D+04 1.626962661743D+00-0.000000000000D+00-3.000000000000D+00
    2.148186669922D+04 1.330498695374D+00-1.862645149231D-09 0.000000000000D+00
